DELTA 2 R/B(1)          
1 20453U 90008B   26025.55846571  .00077746  00000+0  10824-2 0  9994
2 20453  35.6057  96.6310 0100166 219.1562 140.1891 15.49978958919421
COSMOS 2058             
1 20465U 90010A   26026.33493818  .00005185  00000+0  30903-3 0  9998
2 20465  82.4649  89.1525 0011607 115.5221 244.7211 15.10927293935843
SL-14 R/B               
1 20466U 90010B   26026.26247522  .00000816  00000+0  95862-4 0  9992
2 20466  82.5044 307.2377 0021415  80.3396 280.0237 14.83526269922195
SL-14 R/B               
1 20511U 90018B   26026.37436057  .00000632  00000+0  76425-4 0  9996
2 20511  82.5198 262.6500 0015186 228.0997 131.8923 14.82100501916312
HST                     
1 20580U 90037B   26025.86783162  .00011062  00000+0  37628-3 0  9998
2 20580  28.4682 331.9691 0001757   3.6711 356.3897 15.28757175766757
SL-16 R/B               
1 20625U 90046B   26026.42343552 -.00000215  00000+0 -86215-4 0  9993
2 20625  70.9993  26.6782 0014121 358.2201   1.8869 14.15006957842414
COSMOS 2084             
1 20663U 90055A   26026.47838818  .00004556  00000+0  32838-3 0  9995
2 20663  62.7903 119.5165 0023988 181.5377 178.5654 15.05362630929968
SL-6 R/B(2)             
1 20666U 90055D   26026.40404253  .00003557  00000+0  27424-3 0  9998
2 20666  62.7841  37.6226 0018668 333.8802  26.1354 15.03342487931834
SL-8 R/B                
1 20775U 90078B   26026.15266269  .00024209  00000+0  72363-3 0  9998
2 20775  82.9048 289.5176 0368024 156.4990 205.3547 14.87582589802978
SL-8 R/B                
1 21088U 91006B   26026.49359427  .00000029  00000+0  13274-4 0  9995
2 21088  82.9411 201.4209 0023082 150.7469 263.2064 13.77492007758262
OKEAN-3                 
1 21397U 91039A   26026.44954646  .00005659  00000+0  40177-3 0  9998
2 21397  82.5169  17.7532 0015885 111.3125 248.9799 15.04453071858684
COSMOS 2151             
1 21422U 91042A   26026.52413571  .00003251  00000+0  25963-3 0  9999
2 21422  82.4975 124.3429 0012146 195.3104 164.7754 14.99921786856874
