CCSDS_OMM_VERS = 2.0
CREATION_DATE  = 
ORIGINATOR     = 

OBJECT_NAME    = DELTA 2 R/B(1)
OBJECT_ID      = 1990-008B
CENTER_NAME    = EARTH
REF_FRAME      = TEME
TIME_SYSTEM    = UTC
MEAN_ELEMENT_THEORY = SGP/SGP4

EPOCH          = 2026-01-25T13:24:11.437344
MEAN_MOTION    = 15.49978958
ECCENTRICITY   = .0100166
INCLINATION    = 35.6057
RA_OF_ASC_NODE = 96.6310
ARG_OF_PERICENTER = 219.1562
MEAN_ANOMALY   = 140.1891

EPHEMERIS_TYPE = 0
CLASSIFICATION_TYPE = U
NORAD_CAT_ID   = 20453
ELEMENT_SET_NO = 999
REV_AT_EPOCH   = 91942
BSTAR          = .10824E-2
MEAN_MOTION_DOT = .77746E-3
MEAN_MOTION_DDOT = 0

CCSDS_OMM_VERS = 2.0
CREATION_DATE  = 
ORIGINATOR     = 

OBJECT_NAME    = COSMOS 2058
OBJECT_ID      = 1990-010A
CENTER_NAME    = EARTH
REF_FRAME      = TEME
TIME_SYSTEM    = UTC
MEAN_ELEMENT_THEORY = SGP/SGP4

EPOCH          = 2026-01-26T08:02:18.658752
MEAN_MOTION    = 15.10927293
ECCENTRICITY   = .0011607
INCLINATION    = 82.4649
RA_OF_ASC_NODE = 89.1525
ARG_OF_PERICENTER = 115.5221
MEAN_ANOMALY   = 244.7211

EPHEMERIS_TYPE = 0
CLASSIFICATION_TYPE = U
NORAD_CAT_ID   = 20465
ELEMENT_SET_NO = 999
REV_AT_EPOCH   = 93584
BSTAR          = .30903E-3
MEAN_MOTION_DOT = .5185E-4
MEAN_MOTION_DDOT = 0

CCSDS_OMM_VERS = 2.0
CREATION_DATE  = 
ORIGINATOR     = 

OBJECT_NAME    = SL-14 R/B
OBJECT_ID      = 1990-010B
CENTER_NAME    = EARTH
REF_FRAME      = TEME
TIME_SYSTEM    = UTC
MEAN_ELEMENT_THEORY = SGP/SGP4

EPOCH          = 2026-01-26T06:17:57.859008
MEAN_MOTION    = 14.83526269
ECCENTRICITY   = .0021415
INCLINATION    = 82.5044
RA_OF_ASC_NODE = 307.2377
ARG_OF_PERICENTER = 80.3396
MEAN_ANOMALY   = 280.0237

EPHEMERIS_TYPE = 0
CLASSIFICATION_TYPE = U
NORAD_CAT_ID   = 20466
ELEMENT_SET_NO = 999
REV_AT_EPOCH   = 92219
BSTAR          = .95862E-4
MEAN_MOTION_DOT = .816E-5
MEAN_MOTION_DDOT = 0

CCSDS_OMM_VERS = 2.0
CREATION_DATE  = 
ORIGINATOR     = 

OBJECT_NAME    = SL-14 R/B
OBJECT_ID      = 1990-018B
CENTER_NAME    = EARTH
REF_FRAME      = TEME
TIME_SYSTEM    = UTC
MEAN_ELEMENT_THEORY = SGP/SGP4

EPOCH          = 2026-01-26T08:59:04.753248
MEAN_MOTION    = 14.82100501
ECCENTRICITY   = .0015186
INCLINATION    = 82.5198
RA_OF_ASC_NODE = 262.6500
ARG_OF_PERICENTER = 228.0997
MEAN_ANOMALY   = 131.8923

EPHEMERIS_TYPE = 0
CLASSIFICATION_TYPE = U
NORAD_CAT_ID   = 20511
ELEMENT_SET_NO = 999
REV_AT_EPOCH   = 91631
BSTAR          = .76425E-4
MEAN_MOTION_DOT = .632E-5
MEAN_MOTION_DDOT = 0

CCSDS_OMM_VERS = 2.0
CREATION_DATE  = 
ORIGINATOR     = 

OBJECT_NAME    = HST
OBJECT_ID      = 1990-037B
CENTER_NAME    = EARTH
REF_FRAME      = TEME
TIME_SYSTEM    = UTC
MEAN_ELEMENT_THEORY = SGP/SGP4

EPOCH          = 2026-01-25T20:49:40.651968
MEAN_MOTION    = 15.28757175
ECCENTRICITY   = .0001757
INCLINATION    = 28.4682
RA_OF_ASC_NODE = 331.9691
ARG_OF_PERICENTER = 3.6711
MEAN_ANOMALY   = 356.3897

EPHEMERIS_TYPE = 0
CLASSIFICATION_TYPE = U
NORAD_CAT_ID   = 20580
ELEMENT_SET_NO = 999
REV_AT_EPOCH   = 76675
BSTAR          = .37628E-3
MEAN_MOTION_DOT = .11062E-3
MEAN_MOTION_DDOT = 0

CCSDS_OMM_VERS = 2.0
CREATION_DATE  = 
ORIGINATOR     = 

OBJECT_NAME    = SL-16 R/B
OBJECT_ID      = 1990-046B
CENTER_NAME    = EARTH
REF_FRAME      = TEME
TIME_SYSTEM    = UTC
MEAN_ELEMENT_THEORY = SGP/SGP4

EPOCH          = 2026-01-26T10:09:44.828928
MEAN_MOTION    = 14.15006957
ECCENTRICITY   = .0014121
INCLINATION    = 70.9993
RA_OF_ASC_NODE = 26.6782
ARG_OF_PERICENTER = 358.2201
MEAN_ANOMALY   = 1.8869

EPHEMERIS_TYPE = 0
CLASSIFICATION_TYPE = U
NORAD_CAT_ID   = 20625
ELEMENT_SET_NO = 999
REV_AT_EPOCH   = 84241
BSTAR          = -.86215E-4
MEAN_MOTION_DOT = -.215E-5
MEAN_MOTION_DDOT = 0

CCSDS_OMM_VERS = 2.0
CREATION_DATE  = 
ORIGINATOR     = 

OBJECT_NAME    = COSMOS 2084
OBJECT_ID      = 1990-055A
CENTER_NAME    = EARTH
REF_FRAME      = TEME
TIME_SYSTEM    = UTC
MEAN_ELEMENT_THEORY = SGP/SGP4

EPOCH          = 2026-01-26T11:28:52.738752
MEAN_MOTION    = 15.05362630
ECCENTRICITY   = .0023988
INCLINATION    = 62.7903
RA_OF_ASC_NODE = 119.5165
ARG_OF_PERICENTER = 181.5377
MEAN_ANOMALY   = 178.5654

EPHEMERIS_TYPE = 0
CLASSIFICATION_TYPE = U
NORAD_CAT_ID   = 20663
ELEMENT_SET_NO = 999
REV_AT_EPOCH   = 92996
BSTAR          = .32838E-3
MEAN_MOTION_DOT = .4556E-4
MEAN_MOTION_DDOT = 0

CCSDS_OMM_VERS = 2.0
CREATION_DATE  = 
ORIGINATOR     = 

OBJECT_NAME    = SL-6 R/B(2)
OBJECT_ID      = 1990-055D
CENTER_NAME    = EARTH
REF_FRAME      = TEME
TIME_SYSTEM    = UTC
MEAN_ELEMENT_THEORY = SGP/SGP4

EPOCH          = 2026-01-26T09:41:49.274592
MEAN_MOTION    = 15.03342487
ECCENTRICITY   = .0018668
INCLINATION    = 62.7841
RA_OF_ASC_NODE = 37.6226
ARG_OF_PERICENTER = 333.8802
MEAN_ANOMALY   = 26.1354

EPHEMERIS_TYPE = 0
CLASSIFICATION_TYPE = U
NORAD_CAT_ID   = 20666
ELEMENT_SET_NO = 999
REV_AT_EPOCH   = 93183
BSTAR          = .27424E-3
MEAN_MOTION_DOT = .3557E-4
MEAN_MOTION_DDOT = 0

CCSDS_OMM_VERS = 2.0
CREATION_DATE  = 
ORIGINATOR     = 

OBJECT_NAME    = SL-8 R/B
OBJECT_ID      = 1990-078B
CENTER_NAME    = EARTH
REF_FRAME      = TEME
TIME_SYSTEM    = UTC
MEAN_ELEMENT_THEORY = SGP/SGP4

EPOCH          = 2026-01-26T03:39:50.056416
MEAN_MOTION    = 14.87582589
ECCENTRICITY   = .03680244
INCLINATION    = 82.9048
RA_OF_ASC_NODE = 289.5176
ARG_OF_PERICENTER = 156.4990
MEAN_ANOMALY   = 205.3547

EPHEMERIS_TYPE = 0
CLASSIFICATION_TYPE = U
NORAD_CAT_ID   = 20775
ELEMENT_SET_NO = 999
REV_AT_EPOCH   = 80297
BSTAR          = .72362518E-3
MEAN_MOTION_DOT = .24209E-3
MEAN_MOTION_DDOT = 0

CCSDS_OMM_VERS = 2.0
CREATION_DATE  = 
ORIGINATOR     = 

OBJECT_NAME    = SL-8 R/B
OBJECT_ID      = 1991-006B
CENTER_NAME    = EARTH
REF_FRAME      = TEME
TIME_SYSTEM    = UTC
MEAN_ELEMENT_THEORY = SGP/SGP4

EPOCH          = 2026-01-26T11:50:46.544928
MEAN_MOTION    = 13.77492007
ECCENTRICITY   = .0023082
INCLINATION    = 82.9411
RA_OF_ASC_NODE = 201.4209
ARG_OF_PERICENTER = 150.7469
MEAN_ANOMALY   = 263.2064

EPHEMERIS_TYPE = 0
CLASSIFICATION_TYPE = U
NORAD_CAT_ID   = 21088
ELEMENT_SET_NO = 999
REV_AT_EPOCH   = 75826
BSTAR          = .13274E-4
MEAN_MOTION_DOT = .29E-6
MEAN_MOTION_DDOT = 0

CCSDS_OMM_VERS = 2.0
CREATION_DATE  = 
ORIGINATOR     = 

OBJECT_NAME    = OKEAN-3
OBJECT_ID      = 1991-039A
CENTER_NAME    = EARTH
REF_FRAME      = TEME
TIME_SYSTEM    = UTC
MEAN_ELEMENT_THEORY = SGP/SGP4

EPOCH          = 2026-01-26T10:47:20.814144
MEAN_MOTION    = 15.04453071
ECCENTRICITY   = .0015885
INCLINATION    = 82.5169
RA_OF_ASC_NODE = 17.7532
ARG_OF_PERICENTER = 111.3125
MEAN_ANOMALY   = 248.9799

EPHEMERIS_TYPE = 0
CLASSIFICATION_TYPE = U
NORAD_CAT_ID   = 21397
ELEMENT_SET_NO = 999
REV_AT_EPOCH   = 85868
BSTAR          = .40177E-3
MEAN_MOTION_DOT = .5659E-4
MEAN_MOTION_DDOT = 0

CCSDS_OMM_VERS = 2.0
CREATION_DATE  = 
ORIGINATOR     = 

OBJECT_NAME    = COSMOS 2151
OBJECT_ID      = 1991-042A
CENTER_NAME    = EARTH
REF_FRAME      = TEME
TIME_SYSTEM    = UTC
MEAN_ELEMENT_THEORY = SGP/SGP4

EPOCH          = 2026-01-26T12:34:45.325344
MEAN_MOTION    = 14.99921786
ECCENTRICITY   = .0012146
INCLINATION    = 82.4975
RA_OF_ASC_NODE = 124.3429
ARG_OF_PERICENTER = 195.3104
MEAN_ANOMALY   = 164.7754

EPHEMERIS_TYPE = 0
CLASSIFICATION_TYPE = U
NORAD_CAT_ID   = 21422
ELEMENT_SET_NO = 999
REV_AT_EPOCH   = 85687
BSTAR          = .25963E-3
MEAN_MOTION_DOT = .3251E-4
MEAN_MOTION_DDOT = 0

